STARLINK-5647           
1 55355U 23013AA  24086.38634006 -.00084979  00000+0 -63087-2 0  9996
2 55355  43.0012 215.8990 0001628 270.1202  89.9453 15.02793077 64403
STARLINK-5651           
1 55357U 23013AC  24086.38744815  .00030655  00000+0  22730-2 0  9998
2 55357  43.0023 215.9221 0001438 267.0758  92.9919 15.02560299 64415
STARLINK-5622           
1 55358U 23013AD  24086.38969352 -.00001382  00000+0 -87352-4 0  9994
2 55358  43.0032 215.9413 0001658 277.9977  82.0677 15.02506167 64411
STARLINK-5641           
1 55359U 23013AE  24086.58357047  .00020940  00000+0  15608-2 0  9991
2 55359  43.0011 214.8132 0001391 284.3868  75.6820 15.02530755 64441
STARLINK-5664           
1 55360U 23013AF  24086.56665051 -.00002910  00000+0 -20053-3 0  9998
2 55360  43.0008 227.6753 0001226 250.9285 109.1424 15.02524337 64294
STARLINK-5665           
1 55361U 23013AG  24086.60381006  .00044473  00000+0  32845-2 0  9998
2 55361  43.0012 201.9573 0001289 277.0486  83.0209 15.02557829 64593
STARLINK-5574           
1 55362U 23013AH  24086.60711969 -.00009214  00000+0 -66827-3 0  9998
2 55362  42.9991 201.9804 0001656 262.3780  97.6875 15.02516740 64594
STARLINK-5648           
1 55363U 23013AJ  24086.48030689 -.00002520  00000+0 -17154-3 0  9990
2 55363  43.0001 228.7491 0001409 272.0428  88.0253 15.02528471 64274
STARLINK-5627           
1 55364U 23013AK  24086.58134761  .00004965  00000+0  38250-3 0  9991
2 55364  43.0028 214.7982 0001345 263.6693  96.3997 15.02520755 64446
STARLINK-5639           
1 55365U 23013AL  24086.54013199 -.00003113  00000+0 -21545-3 0  9994
2 55365  43.0029 228.3360 0001535 257.0703 102.9968 15.02533552 64282
STARLINK-5654           
1 55366U 23013AM  24086.60936915  .00024869  00000+0  18505-2 0  9992
2 55366  42.9990 201.9974 0001593 268.4969  91.5691 15.02515499 64590
STARLINK-5635           
1 55367U 23013AN  24086.62711328  .00015667  00000+0  11726-2 0  9998
2 55367  43.0029 202.1251 0001563 283.8437  76.2232 15.02525222 64591
STARLINK-5625           
1 55368U 23013AP  24086.60046112 -.00006854  00000+0 -49303-3 0  9992
2 55368  43.0003 201.9302 0001429 276.5182  83.5497 15.02519654 64591
STARLINK-5644           
1 55369U 23013AQ  24086.47253610  .00011275  00000+0  84796-3 0  9997
2 55369  43.0034 228.6904 0001481 259.9639 100.1037 15.02554579 64276
STARLINK-5027           
1 55370U 23013AR  24086.47698615  .00002993  00000+0  23662-3 0  9999
2 55370  43.0032 228.7279 0001411 273.4958  86.5723 15.02528631 64279
STARLINK-5590           
1 55371U 23013AS  24086.59550888  .00021885  00000+0  16310-2 0  9994
2 55371  43.0016 227.8940 0001195 263.9566  96.1140 15.02514595 65214
STARLINK-5568           
1 55372U 23013AT  24086.53568888 -.00000131  00000+0  53981-5 0  9998
2 55372  43.0016 228.3031 0001870 254.3299 105.7337 15.02519856 64285
STARLINK-5581           
1 55373U 23013AU  24086.42382072  .00016211  00000+0  12114-2 0  9991
2 55373  43.0009 229.1758 0001414 275.6564  84.4117 15.02565739 64266
STARLINK-5578           
1 55374U 23013AV  24086.46588071 -.00001080  00000+0 -64882-4 0  9994
2 55374  43.0016 228.6403 0001199 270.6929  89.3776 15.02526174 64272
STARLINK-5588           
1 55375U 23013AW  24086.45589109 -.00000612  00000+0 -30265-4 0  9995
2 55375  43.0009 228.5642 0001143 267.8367  92.2344 15.02532381 64273
STARLINK-5586           
1 55376U 23013AX  24086.63043866 -.00002324  00000+0 -15707-3 0  9996
2 55376  43.0019 202.1469 0001396 273.7179  86.3504 15.02523504 64591
STARLINK-5567           
1 55377U 23013AY  24086.44256389  .00005166  00000+0  39709-3 0  9995
2 55377  43.0021 228.4658 0001521 253.6005 106.4671 15.02546706 64274
STARLINK-5572           
1 55378U 23013AZ  24086.45921860  .00006529  00000+0  49792-3 0  9997
2 55378  43.0037 228.5922 0001455 260.2870  99.7808 15.02535967 64270
STARLINK-5569           
1 55379U 23013BA  24086.58219976  .00028495  00000+0  21162-2 0  9996
2 55379  43.0028 227.7931 0001335 272.7027  87.3663 15.02530966 64299
STARLINK-5571           
1 55380U 23013BB  24086.59269968  .00000162  00000+0  27071-4 0  9993
2 55380  43.0001 201.8729 0001299 259.7945 100.2750 15.02510990 64593
STARLINK-5575           
1 55381U 23013BC  24086.57885689  .00011539  00000+0  86817-3 0  9998
2 55381  42.9983 227.7606 0001582 198.2049 161.8737 15.02523068 64294
STARLINK-5576           
1 55382U 23013BD  24086.45255338  .00009306  00000+0  70281-3 0  9995
2 55382  43.0024 228.5402 0001598 258.7864 101.2799 15.02550690 64275
STARLINK-5531           
1 55383U 23013BE  24086.58935756  .00002676  00000+0  21323-3 0  9995
2 55383  43.0009 201.8448 0001037 251.4962 108.5767 15.02514895 64597
STARLINK-5537           
1 55384U 23013BF  24086.58330707  .00016283  00000+0  12176-2 0  9995
2 55384  43.0016 227.8016 0001474 273.1537  86.9137 15.02537193 64292
STARLINK-5556           
1 55385U 23013BG  24086.43591495  .00007950  00000+0  60249-3 0  9999
2 55385  43.0027 228.4144 0001632 277.0232  83.0424 15.02560739 64272
STARLINK-5555           
1 55386U 23013BH  24086.43924725  .00003490  00000+0  27334-3 0  9999
2 55386  43.0014 228.4375 0001486 262.5049  97.5624 15.02526247 64275
STARLINK-5077           
1 55391U 23014A   24086.37487774 -.00001082  00000+0 -84747-4 0  9996
2 55391  70.0001  62.3322 0002776 266.6496  93.4345 14.97520656 65220
STARLINK-5085           
1 55392U 23014B   24086.57480277 -.00001119  00000+0 -86003-4 0  9998
2 55392  70.0024  42.3667 0002492 266.2490  93.8384 14.98334377 65738
STARLINK-4786           
1 55393U 23014C   24086.38745762 -.00003797  00000+0 -31076-3 0  9994
2 55393  70.0012  62.8013 0002641 259.7916 100.2945 14.98310689 65213
STARLINK-5230           
1 55394U 23014D   24086.31649311 -.00005058  00000+0 -41635-3 0  9995
2 55394  70.0003  62.9404 0002753 271.7794  88.3050 14.98339383 65205
STARLINK-5274           
1 55395U 23014E   24086.32886292 -.00002223  00000+0 -17854-3 0  9995
2 55395  70.0002  62.9724 0002943 268.2095  91.8727 14.98331686 65204
STARLINK-5283           
1 55396U 23014F   24086.32468328 -.00001708  00000+0 -13543-3 0  9990
2 55396  70.0002  62.9700 0002872 268.6116  91.4714 14.98328242 65204
STARLINK-5224           
1 55397U 23014G   24086.28691931  .00000148  00000+0  20217-4 0  9996
2 55397  70.0014  43.3502 0002554 252.9132 107.1748 14.98330003 65684
STARLINK-5275           
1 55398U 23014H   24086.34138700 -.00002188  00000+0 -17570-3 0  9999
2 55398  70.0002  63.0247 0002786 266.1135  93.9706 14.98325455 65203
STARLINK-5276           
1 55399U 23014J   24086.33302799 -.00001266  00000+0 -98326-4 0  9995
2 55399  70.0005  62.9968 0002796 265.9104  94.1736 14.98332458 65206
STARLINK-5632           
1 55400U 23014K   24086.34973005 -.00001789  00000+0 -14217-3 0  9999
2 55400  70.0005  63.0556 0002804 268.0272  92.0566 14.98325338 65201
STARLINK-5076           
1 55401U 23014L   24086.33720554 -.00000819  00000+0 -60830-4 0  9994
2 55401  70.0003  63.0109 0002682 269.2293  90.8559 14.98328176 65205
STARLINK-5071           
1 55402U 23014M   24086.35807630 -.00000633  00000+0 -45309-4 0  9996
2 55402  70.0003  63.0847 0002859 271.5650  88.5181 14.98326709 65209
STARLINK-5597           
1 55403U 23014N   24086.34555663 -.00001384  00000+0 -10828-3 0  9993
2 55403  69.9999  63.0407 0002847 268.5850  91.4983 14.98323831 65204
STARLINK-5607           
1 55404U 23014P   24086.36641884 -.00001425  00000+0 -11163-3 0  9996
2 55404  69.9998  63.1144 0002989 270.5123  89.5693 14.98325357 65207
STARLINK-5623           
1 55405U 23014Q   24086.35389960  .00000558  00000+0  54594-4 0  9990
2 55405  69.9996  63.0705 0002937 266.8562  93.2261 14.98322316 65201
STARLINK-5630           
1 55406U 23014R   24086.37060215 -.00001504  00000+0 -11827-3 0  9997
2 55406  70.0008  63.1324 0002687 266.9990  93.0862 14.98326074 65205
STARLINK-5019           
1 55407U 23014S   24086.36225754 -.00001253  00000+0 -97296-4 0  9994
2 55407  70.0002  63.0998 0002941 270.9779  89.1044 14.98319438 65203
STARLINK-5092           
1 55408U 23014T   24086.37910871 -.00008118  00000+0 -67299-3 0  9993
2 55408  70.0023  63.1651 0002319 233.8611 126.2334 14.98353490 65207
STARLINK-5047           
1 55409U 23014U   24086.37477611 -.00002466  00000+0 -19900-3 0  9990
2 55409  70.0006  63.1454 0002776 269.0018  91.0823 14.98320875 65202
STARLINK-5633           
1 55410U 23014V   24086.40835820 -.00000444  00000+0 -29420-4 0  9999
2 55410  69.9993  82.7288 0003005 272.5012  87.5803 14.98331231 64729
STARLINK-5605           
1 55411U 23014W   24086.31219044 -.00000807  00000+0 -59878-4 0  9997
2 55411  70.0009  63.3291 0002668 267.7768  92.3085 14.98325273 65195
STARLINK-5033           
1 55412U 23014X   24086.41686722 -.00004864  00000+0 -39990-3 0  9999
2 55412  69.9984  82.7559 0002846 275.5899  84.4936 14.98351971 64726
STARLINK-5060           
1 55413U 23014Y   24086.40418731 -.00001116  00000+0 -85726-4 0  9998
2 55413  69.9994  82.7140 0002935 269.5478  90.5345 14.98329050 64724
STARLINK-5620           
1 55414U 23014Z   24086.42088168  .00000244  00000+0  28219-4 0  9991
2 55414  69.9994  82.7722 0002939 270.7775  89.3047 14.98327719 64724
STARLINK-5618           
1 55415U 23014AA  24086.40435253 -.00000895  00000+0 -67244-4 0  9996
2 55415  69.9990  82.7143 0002721 263.8142  96.2707 14.98326918 64728
STARLINK-5624           
1 55416U 23014AB  24086.42923362  .00000089  00000+0  15279-4 0  9996
2 55416  70.0013  82.7996 0002904 272.0526  88.0300 14.98337135 64726
STARLINK-5616           
1 55417U 23014AC  24086.41670908  .00001222  00000+0  11016-3 0  9995
2 55417  69.9996  82.7569 0002921 269.1360  90.9464 14.98341457 64727
STARLINK-5030           
1 55418U 23014AD  24086.37081818 -.00000559  00000+0 -39096-4 0  9990
2 55418  69.9985  82.9970 0002922 272.1600  87.9224 14.98330969 64711
STARLINK-5629           
